LEMUR-2-PETERG          
1 42841U 17042S   26068.48235713  .00023240  00000+0  81076-3 0  9993
2 42841  97.3980 253.6596 0003700 341.6938  18.4169 15.29611459473171
STARLINK-32561          
1 62026U 24213U   26068.54776594  .00028267  00000+0  96317-3 0  9990
2 62026  53.1590 168.7454 0000924  85.2752 274.8354 15.30190093 73138
